{"type": "FeatureCollection", "features": [ {"type": "Feature", "properties": {"norad_id": 40236, "name": "COSMOS 2251 DEB", "group": "cosmos-2251-debris", "lat": -24.535018818628682, "lon": 151.37676866812907, "alt_km": 989.2374096906897, "timestamp": "2025-12-02T23:34:15.915643+00:00", "meta": {"OBJECT_NAME": "COSMOS 2251 DEB", "OBJECT_ID": "1993-036BVR", "EPOCH": "2025-11-24T19:56:56.097312", "MEAN_MOTION": 13.24604738, "ECCENTRICITY": 0.0536049, "INCLINATION": 73.5357, "RA_OF_ASC_NODE": 171.9764, "ARG_OF_PERICENTER": 53.9086, "MEAN_ANOMALY": 311.0422, "EPHEMERIS_TYPE": 0, "CLASSIFICATION_TYPE": "U", "NORAD_CAT_ID": 40236, "ELEMENT_SET_NO": 999, "REV_AT_EPOCH": 53387, "BSTAR": 0.0012678, "MEAN_MOTION_DOT": 1.163e-05, "MEAN_MOTION_DDOT": 0}, "tle": {"line1": "1 40236U 93036BVR 25328.83120483  .00001163  00000+0  12678-2 0  9991", "line2": "2 40236  73.5357 171.9764 0536049  53.9086 311.0422 13.24604738533877"}}, "geometry": {"type": "Point", "coordinates": [151.37676866812907, -24.535018818628682]}}, {"type": "Feature", "properties": {"norad_id": 40238, "name": "COSMOS 2251 DEB", "group": "cosmos-2251-debris", "lat": 56.71578601235781, "lon": 104.52030252960941, "alt_km": 748.3065468295445, "timestamp": "2025-12-02T23:34:15.915653+00:00", "meta": {"OBJECT_NAME": "COSMOS 2251 DEB", "OBJECT_ID": "1993-036BVT", "EPOCH": "2025-11-30T22:22:36.240096", "MEAN_MOTION": 13.25077646, "ECCENTRICITY": 0.05498623, "INCLINATION": 73.9876, "RA_OF_ASC_NODE": 81.7287, "ARG_OF_PERICENTER": 56.0291, "MEAN_ANOMALY": 309.1807, "EPHEMERIS_TYPE": 0, "CLASSIFICATION_TYPE": "U", "NORAD_CAT_ID": 40238, "ELEMENT_SET_NO": 999, "REV_AT_EPOCH": 53880, "BSTAR": 0.001219224, "MEAN_MOTION_DOT": 1.179e-05, "MEAN_MOTION_DDOT": 0}, "tle": {"line1": "1 40238U 93036BVT 25334.93236389  .00001179  00000+0  12192-2 0  9992", "line2": "2 40238  73.9876  81.7287 0549862  56.0291 309.1807 13.25077646538802"}}, "geometry": {"type": "Point", "coordinates": [104.52030252960941, 56.71578601235781]}}, {"type": "Feature", "properties": {"norad_id": 40239, "name": "COSMOS 2251 DEB", "group": "cosmos-2251-debris", "lat": 67.88928241857163, "lon": 69.70904802974655, "alt_km": 647.1907141545771, "timestamp": "2025-12-02T23:34:15.915663+00:00", "meta": {"OBJECT_NAME": "COSMOS 2251 DEB", "OBJECT_ID": "1993-036BVU", "EPOCH": "2025-11-29T04:50:38.433408", "MEAN_MOTION": 14.61895832, "ECCENTRICITY": 0.00843357, "INCLINATION": 74.031, "RA_OF_ASC_NODE": 301.7592, "ARG_OF_PERICENTER": 56.7028, "MEAN_ANOMALY": 320.9905, "EPHEMERIS_TYPE": 0, "CLASSIFICATION_TYPE": "U", "NORAD_CAT_ID": 40239, "ELEMENT_SET_NO": 999, "REV_AT_EPOCH": 59413, "BSTAR": 0.00044061432, "MEAN_MOTION_DOT": 2.288e-05, "MEAN_MOTION_DDOT": 0}, "tle": {"line1": "1 40239U 93036BVU 25333.20183372  .00002288  00000+0  44061-3 0  9998", "line2": "2 40239  74.0310 301.7592 0084335  56.7028 320.9905 14.61895832594130"}}, "geometry": {"type": "Point", "coordinates": [69.70904802974655, 67.88928241857163]}}, {"type": "Feature", "properties": {"norad_id": 40792, "name": "COSMOS 2251 DEB", "group": "cosmos-2251-debris", "lat": 68.21421108860575, "lon": 112.00708829899648, "alt_km": 664.368197962779, "timestamp": "2025-12-02T23:34:15.915674+00:00", "meta": {"OBJECT_NAME": "COSMOS 2251 DEB", "OBJECT_ID": "1993-036BVV", "EPOCH": "2025-11-22T08:06:07.865856", "MEAN_MOTION": 14.67201811, "ECCENTRICITY": 0.00172349, "INCLINATION": 74.0441, "RA_OF_ASC_NODE": 86.8266, "ARG_OF_PERICENTER": 197.5934, "MEAN_ANOMALY": 193.5273, "EPHEMERIS_TYPE": 0, "CLASSIFICATION_TYPE": "U", "NORAD_CAT_ID": 40792, "ELEMENT_SET_NO": 999, "REV_AT_EPOCH": 62885, "BSTAR": 0.00160322, "MEAN_MOTION_DOT": 9.026e-05, "MEAN_MOTION_DDOT": 0}, "tle": {"line1": "1 40792U 93036BVV 25326.33759104  .00009026  00000+0  16032-2 0  9993", "line2": "2 40792  74.0441  86.8266 0017234 197.5934 193.5273 14.67201811628855"}}, "geometry": {"type": "Point", "coordinates": [112.00708829899648, 68.21421108860575]}}, {"type": "Feature", "properties": {"norad_id": 40793, "name": "COSMOS 2251 DEB", "group": "cosmos-2251-debris", "lat": 38.913257914400056, "lon": -164.3498152678831, "alt_km": 791.4379501819685, "timestamp": "2025-12-02T23:34:15.915684+00:00", "meta": {"OBJECT_NAME": "COSMOS 2251 DEB", "OBJECT_ID": "1993-036BVW", "EPOCH": "2025-11-17T22:59:08.433600", "MEAN_MOTION": 14.0559149, "ECCENTRICITY": 0.02150611, "INCLINATION": 73.9793, "RA_OF_ASC_NODE": 208.5839, "ARG_OF_PERICENTER": 10.058, "MEAN_ANOMALY": 350.4754, "EPHEMERIS_TYPE": 0, "CLASSIFICATION_TYPE": "U", "NORAD_CAT_ID": 40793, "ELEMENT_SET_NO": 999, "REV_AT_EPOCH": 67897, "BSTAR": 0.0015211732, "MEAN_MOTION_DOT": 3.024e-05, "MEAN_MOTION_DDOT": 0}, "tle": {"line1": "1 40793U 93036BVW 25321.95773650  .00003024  00000+0  15212-2 0  9990", "line2": "2 40793  73.9793 208.5839 0215061  10.0580 350.4754 14.05591490678970"}}, "geometry": {"type": "Point", "coordinates": [-164.3498152678831, 38.913257914400056]}}, {"type": "Feature", "properties": {"norad_id": 40794, "name": "COSMOS 2251 DEB", "group": "cosmos-2251-debris", "lat": -36.73558848397331, "lon": 131.51834798765697, "alt_km": 596.0289543810168, "timestamp": "2025-12-02T23:34:15.915694+00:00", "meta": {"OBJECT_NAME": "COSMOS 2251 DEB", "OBJECT_ID": "1993-036BVX", "EPOCH": "2025-11-30T04:39:36.279360", "MEAN_MOTION": 14.91253423, "ECCENTRICITY": 0.00103638, "INCLINATION": 73.9758, "RA_OF_ASC_NODE": 149.5129, "ARG_OF_PERICENTER": 264.0956, "MEAN_ANOMALY": 215.1976, "EPHEMERIS_TYPE": 0, "CLASSIFICATION_TYPE": "U", "NORAD_CAT_ID": 40794, "ELEMENT_SET_NO": 999, "REV_AT_EPOCH": 61737, "BSTAR": 0.0047311798, "MEAN_MOTION_DOT": 0.00047418, "MEAN_MOTION_DDOT": 0}, "tle": {"line1": "1 40794U 93036BVX 25334.19416990  .00047418  00000+0  47312-2 0  9993", "line2": "2 40794  73.9758 149.5129 0010363 264.0956 215.1976 14.91253423617370"}}, "geometry": {"type": "Point", "coordinates": [131.51834798765697, -36.73558848397331]}}, {"type": "Feature", "properties": {"norad_id": 40796, "name": "COSMOS 2251 DEB", "group": "cosmos-2251-debris", "lat": 17.32740576315109, "lon": 166.61824215492112, "alt_km": 616.7333117891758, "timestamp": "2025-12-02T23:34:15.915704+00:00", "meta": {"OBJECT_NAME": "COSMOS 2251 DEB", "OBJECT_ID": "1993-036BVZ", "EPOCH": "2025-12-02T06:27:45.283968", "MEAN_MOTION": 14.81470556, "ECCENTRICITY": 0.005597, "INCLINATION": 74.0116, "RA_OF_ASC_NODE": 162.895, "ARG_OF_PERICENTER": 301.3277, "MEAN_ANOMALY": 235.9171, "EPHEMERIS_TYPE": 0, "CLASSIFICATION_TYPE": "U", "NORAD_CAT_ID": 40796, "ELEMENT_SET_NO": 999, "REV_AT_EPOCH": 76003, "BSTAR": 0.00090141, "MEAN_MOTION_DOT": 7.227e-05, "MEAN_MOTION_DDOT": 0}, "tle": {"line1": "1 40796U 93036BVZ 25336.26927412  .00007227  00000+0  90141-3 0  9994", "line2": "2 40796  74.0116 162.8950 0055970 301.3277 235.9171 14.81470556760032"}}, "geometry": {"type": "Point", "coordinates": [166.61824215492112, 17.32740576315109]}}, {"type": "Feature", "properties": {"norad_id": 40797, "name": "COSMOS 2251 DEB", "group": "cosmos-2251-debris", "lat": 47.59553106493219, "lon": -82.7848821695329, "alt_km": 536.8612325169979, "timestamp": "2025-12-02T23:34:15.915715+00:00", "meta": {"OBJECT_NAME": "COSMOS 2251 DEB", "OBJECT_ID": "1993-036BWA", "EPOCH": "2025-11-19T18:43:16.602528", "MEAN_MOTION": 15.10509474, "ECCENTRICITY": 0.00703947, "INCLINATION": 73.92, "RA_OF_ASC_NODE": 143.0892, "ARG_OF_PERICENTER": 60.6639, "MEAN_ANOMALY": 300.156, "EPHEMERIS_TYPE": 0, "CLASSIFICATION_TYPE": "U", "NORAD_CAT_ID": 40797, "ELEMENT_SET_NO": 999, "REV_AT_EPOCH": 64297, "BSTAR": 0.00072810385, "MEAN_MOTION_DOT": 0.00012707, "MEAN_MOTION_DDOT": 0}, "tle": {"line1": "1 40797U 93036BWA 25323.78005327  .00012707  00000+0  72810-3 0  9992", "line2": "2 40797  73.9200 143.0892 0070394  60.6639 300.1560 15.10509474642979"}}, "geometry": {"type": "Point", "coordinates": [-82.7848821695329, 47.59553106493219]}}, {"type": "Feature", "properties": {"norad_id": 40799, "name": "COSMOS 2251 DEB", "group": "cosmos-2251-debris", "lat": -67.96365641178986, "lon": 72.79918102305062, "alt_km": 565.5293232747517, "timestamp": "2025-12-02T23:34:15.915725+00:00", "meta": {"OBJECT_NAME": "COSMOS 2251 DEB", "OBJECT_ID": "1993-036BWC", "EPOCH": "2025-11-25T04:10:54.666912", "MEAN_MOTION": 14.96445467, "ECCENTRICITY": 0.01183753, "INCLINATION": 73.9244, "RA_OF_ASC_NODE": 134.1195, "ARG_OF_PERICENTER": 20.3191, "MEAN_ANOMALY": 340.2644, "EPHEMERIS_TYPE": 0, "CLASSIFICATION_TYPE": "U", "NORAD_CAT_ID": 40799, "ELEMENT_SET_NO": 999, "REV_AT_EPOCH": 49714, "BSTAR": 0.000381797, "MEAN_MOTION_DOT": 4.953e-05, "MEAN_MOTION_DDOT": 0}, "tle": {"line1": "1 40799U 93036BWC 25329.17424383  .00004953  00000+0  38180-3 0  9996", "line2": "2 40799  73.9244 134.1195 0118375  20.3191 340.2644 14.96445467497143"}}, "geometry": {"type": "Point", "coordinates": [72.79918102305062, -67.96365641178986]}}, {"type": "Feature", "properties": {"norad_id": 40802, "name": "COSMOS 2251 DEB", "group": "cosmos-2251-debris", "lat": -69.79421147702266, "lon": 121.11203906598745, "alt_km": 600.4303071691356, "timestamp": "2025-12-02T23:34:15.915735+00:00", "meta": {"OBJECT_NAME": "COSMOS 2251 DEB", "OBJECT_ID": "1993-036BWF", "EPOCH": "2025-12-02T06:02:32.408736", "MEAN_MOTION": 14.77446019, "ECCENTRICITY": 0.0063431, "INCLINATION": 74.0395, "RA_OF_ASC_NODE": 173.5857, "ARG_OF_PERICENTER": 274.4204, "MEAN_ANOMALY": 84.9726, "EPHEMERIS_TYPE": 0, "CLASSIFICATION_TYPE": "U", "NORAD_CAT_ID": 40802, "ELEMENT_SET_NO": 999, "REV_AT_EPOCH": 64254, "BSTAR": 0.00074894, "MEAN_MOTION_DOT": 5.484e-05, "MEAN_MOTION_DDOT": 0}, "tle": {"line1": "1 40802U 93036BWF 25336.25176399  .00005484  00000+0  74894-3 0  9991", "line2": "2 40802  74.0395 173.5857 0063431 274.4204  84.9726 14.77446019642540"}}, "geometry": {"type": "Point", "coordinates": [121.11203906598745, -69.79421147702266]}}]}